NORAD_CAT_ID,OBJECT_NAME,OBJECT_TYPE,EPOCH,MEAN_MOTION,ECCENTRICITY,INCLINATION,RA_OF_ASC_NODE,ARG_OF_PERICENTER,MEAN_ANOMALY,BSTAR,MEAN_MOTION_DOT,MEAN_MOTION_DDOT,TLE_LINE0,TLE_LINE1,TLE_LINE2,SEMIMAJOR_AXIS,PERIOD,APOGEE,PERIGEE,DECAYED
53393.0,STARLINK-4530,PAYLOAD,2023-01-20 22:35:36,15.0885054,0.0001271,53.213,218.6124,82.7902,277.3234,0.00039222,5.962e-05,0.0,0 STARLINK-4530,1 53393U 22097F   23020.94139043  .00005962  00000-0  39222-3 0  9996,2 53393  53.2130 218.6124 0001271  82.7902 277.3234 15.08850540 25351,6917.848000000001,95.437,540.592,538.8340000000001,0.0
53393.0,STARLINK-4530,PAYLOAD,2023-01-21 06:32:32,15.08841001,0.0001419999999999,53.2137,217.127,81.12899999999999,278.9862,0.00022851,3.351e-05,0.0,0 STARLINK-4530,1 53393U 22097F   23021.27259487  .00003351  00000-0  22851-3 0  9998,2 53393  53.2137 217.1270 0001420  81.1290 278.9862 15.08841001 25405,6917.877,95.437,540.725,538.76,0.0
53393.0,STARLINK-4530,PAYLOAD,2023-01-22 12:44:51,15.088466199999996,0.0001165,53.2126,211.4753,82.6679,277.4445,0.00031996,4.809e-05,0.0,0 STARLINK-4530,1 53393U 22097F   23022.53115233  .00004809  00000-0  31996-3 0  9997,2 53393  53.2126 211.4753 0001165  82.6679 277.4445 15.08846620 25592,6917.86,95.437,540.531,538.919,0.0
53393.0,STARLINK-4530,PAYLOAD,2023-01-23 12:35:38,15.08841235,0.0001167,53.213,207.0148,77.736,282.3763,9.3786e-05,1.205e-05,0.0,0 STARLINK-4530,1 53393U 22097F   23023.52475237  .00001205  00000-0  93786-4 0  9993,2 53393  53.2130 207.0148 0001167  77.7360 282.3763 15.08841235 25742,6917.877,95.437,540.549,538.934,0.0
53393.0,STARLINK-4530,PAYLOAD,2023-01-24 18:47:58,15.08839168,0.0001152,53.2141,201.3653,82.1271,277.9851,8.422e-06,-1.54e-06,0.0,0 STARLINK-4530,1 53393U 22097F   23024.78331268 -.00000154  00000-0  84220-5 0  9994,2 53393  53.2141 201.3653 0001152  82.1271 277.9851 15.08839168 25938,6917.883000000001,95.438,540.545,538.951,0.0
53393.0,STARLINK-4530,PAYLOAD,2023-01-25 12:17:13,15.0883612,0.0001158,53.2157,198.0945,86.2205,273.8919,4.2161000000000005e-05,3.83e-06,0.0,0 STARLINK-4530,1 53393U 22097F   23025.51195820  .00000383  00000-0  42161-4 0  9998,2 53393  53.2157 198.0945 0001158  86.2205 273.8919 15.08836120 26698,6917.892,95.438,540.558,538.956,0.0
53393.0,STARLINK-4530,PAYLOAD,2023-01-25 17:03:22,15.08837727,0.0001159,53.2159,197.2026,86.2771,273.8353,4.4986000000000006e-05,4.28e-06,0.0,0 STARLINK-4530,1 53393U 22097F   23025.71067700  .00000428  00000-0  44986-4 0  9992,2 53393  53.2159 197.2026 0001159  86.2771 273.8353 15.08837727 26720,6917.887,95.438,540.554,538.951,0.0
53393.0,STARLINK-4530,PAYLOAD,2023-01-25 21:49:31,15.08841491,0.0001174,53.2155,196.3098,85.988,274.1247,7.3129e-05,8.76e-06,0.0,0 STARLINK-4530,1 53393U 22097F   23025.90939408  .00000876  00000-0  73129-4 0  9994,2 53393  53.2155 196.3098 0001174  85.9880 274.1247 15.08841491 26100,6917.876,95.437,540.553,538.929,0.0
53393.0,STARLINK-4530,PAYLOAD,2023-01-26 10:32:36,15.08837827,0.0001124,53.2151,193.9303,86.6621,273.4499,0.00012091,1.637e-05,0.0,0 STARLINK-4530,1 53393U 22097F   23026.43931628  .00001637  00000-0  12091-3 0  9995,2 53393  53.2151 193.9303 0001124  86.6621 273.4499 15.08837827 26833,6917.887,95.438,540.53,538.974,0.0
53393.0,STARLINK-4530,PAYLOAD,2023-01-27 04:01:51,15.08840319,0.0001036,53.2151,190.659,90.0544,270.0567,8.4227e-05,1.053e-05,0.0,0 STARLINK-4530,1 53393U 22097F   23027.16795512  .00001053  00000-0  84227-4 0  9999,2 53393  53.2151 190.6590 0001036  90.0544 270.0567 15.08840319 26299,6917.879,95.438,540.461,539.028,0.0
53393.0,STARLINK-4530,PAYLOAD,2023-01-27 11:58:47,15.08830798,0.0001125,53.2153,189.1725,84.09200000000001,276.02,4.302399999999999e-05,3.97e-06,0.0,0 STARLINK-4530,1 53393U 22097F   23027.49916377  .00000397  00000-0  43024-4 0  9999,2 53393  53.2153 189.1725 0001125  84.0920 276.0200 15.08830798 26340,6917.909000000001,95.438,540.552,538.995,0.0
53393.0,STARLINK-4530,PAYLOAD,2023-01-27 18:20:19,15.08837981,0.0001155999999999,53.215,187.9824,83.8356,276.2768,5.0179e-05,5.11e-06,0.0,0 STARLINK-4530,1 53393U 22097F   23027.76411989  .00000511  00000-0  50179-4 0  9995,2 53393  53.2150 187.9824 0001156  83.8356 276.2768 15.08837981 27036,6917.887,95.438,540.5509999999999,538.952,0.0
53393.0,STARLINK-4530,PAYLOAD,2023-01-28 03:52:38,15.08840663,0.0001187,53.2152,186.1985,83.3047,276.808,7.7875e-05,9.52e-06,0.0,0 STARLINK-4530,1 53393U 22097F   23028.16155799  .00000952  00000-0  77875-4 0  9995,2 53393  53.2152 186.1985 0001187  83.3047 276.8080 15.08840663 26441,6917.878000000001,95.438,540.565,538.922,0.0
53393.0,STARLINK-4530,PAYLOAD,2023-01-28 10:14:11,15.08839555,0.00012,53.2155,185.0095,83.7738,276.3391,8.6697e-05,1.092e-05,0.0,0 STARLINK-4530,1 53393U 22097F   23028.42651877  .00001092  00000-0  86697-4 0  9990,2 53393  53.2155 185.0095 0001200  83.7738 276.3391 15.08839555 27136,6917.882,95.438,540.577,538.917,0.0
53393.0,STARLINK-4530,PAYLOAD,2023-01-28 19:46:29,15.08848654,0.0001179,53.2149,183.2251,75.619,284.4933,0.00010924,1.452e-05,0.0,0 STARLINK-4530,1 53393U 22097F   23028.82395237  .00001452  00000-0  10924-3 0  9998,2 53393  53.2149 183.2251 0001179  75.6190 284.4933 15.08848654 27198,6917.854,95.437,540.535,538.903,0.0
53393.0,STARLINK-4530,PAYLOAD,2023-01-29 13:15:44,15.08837939,0.0001411,53.2138,179.9526,94.4796,265.6357,0.00011399,1.527e-05,0.0,0 STARLINK-4530,1 53393U 22097F   23029.55259912  .00001527  00000-0  11399-3 0  9998,2 53393  53.2138 179.9526 0001411  94.4796 265.6357 15.08837939 26658,6917.887,95.438,540.728,538.776,0.0
53393.0,STARLINK-4530,PAYLOAD,2023-01-29 16:26:30,15.08840879,0.0001182,53.215,179.3571,107.0729,253.0393,8.3267e-05,1.038e-05,0.0,0 STARLINK-4530,1 53393U 22097F   23029.68507704  .00001038  00000-0  83267-4 0  9998,2 53393  53.2150 179.3571 0001182 107.0729 253.0393 15.08840879 27321,6917.878,95.437,540.56,538.925,0.0
53393.0,STARLINK-4530,PAYLOAD,2023-01-30 09:55:45,15.08837163,0.0001275,53.2143,176.087,97.4811,262.6326,3.8612e-05,3.27e-06,0.0,0 STARLINK-4530,1 53393U 22097F   23030.41372168  .00000327  00000-0  38612-4 0  9999,2 53393  53.2143 176.0870 0001275  97.4811 262.6326 15.08837163 27432,6917.889,95.438,540.636,538.872,0.0
53393.0,STARLINK-4530,PAYLOAD,2023-01-30 14:41:55,15.08837976,0.0001327,53.2154,175.1974,84.2579,275.8564,2.8073e-05,1.59e-06,0.0,0 STARLINK-4530,1 53393U 22097F   23030.61244228  .00000159  00000-0  28073-4 0  9999,2 53393  53.2154 175.1974 0001327  84.2579 275.8564 15.08837976 26815,6917.887,95.438,540.67,538.834,0.0
53393.0,STARLINK-4530,PAYLOAD,2023-01-31 09:46:32,15.08838605,0.0001268,53.2159,171.628,101.1189,258.9945,7.1108e-05,8.44e-06,0.0,0 STARLINK-4530,1 53393U 22097F   23031.40732050  .00000844  00000-0  71108-4 0  9990,2 53393  53.2159 171.6280 0001268 101.1189 258.9945 15.08838605 27581,6917.885,95.438,540.627,538.872,0.0
53393.0,STARLINK-4530,PAYLOAD,2023-02-01 01:40:23,15.08840456,0.0001263,53.2161,168.6548,103.3403,256.773,0.00010065,1.314e-05,0.0,0 STARLINK-4530,1 53393U 22097F   23032.06971867  .00001314  00000-0  10065-3 0  9991,2 53393  53.2161 168.6548 0001263 103.3403 256.7730 15.08840456 27030,6917.879,95.438,540.618,538.87,0.0
53393.0,STARLINK-4530,PAYLOAD,2023-02-01 12:48:05,15.08839368,0.0001337,53.217,166.5734,111.7902,248.3233,8.2789e-05,1.03e-05,0.0,0 STARLINK-4530,1 53393U 22097F   23032.53339987  .00001030  00000-0  82789-4 0  9992,2 53393  53.2170 166.5734 0001337 111.7902 248.3233 15.08839368 27757,6917.882,95.438,540.672,538.822,0.0
53393.0,STARLINK-4530,PAYLOAD,2023-02-02 01:31:11,15.08838339,0.0001333,53.2179,164.1957,103.578,256.536,3.4807e-05,2.66e-06,0.0,0 STARLINK-4530,1 53393U 22097F   23033.06332283  .00000266  00000-0  34807-4 0  9991,2 53393  53.2179 164.1957 0001333 103.5780 256.5360 15.08838339 27182,6917.885,95.438,540.673,538.828,0.0
53393.0,STARLINK-4530,PAYLOAD,2023-02-02 12:38:53,15.08833588,0.0001277,53.219,162.1148,108.9109,251.2022,4.7928e-06,-2.12e-06,0.0,0 STARLINK-4530,1 53393U 22097F   23033.52700795 -.00000212  00000-0  47928-5 0  9990,2 53393  53.2190 162.1148 0001277 108.9109 251.2022 15.08833588 27904,6917.9,95.438,540.648,538.882,0.0
53393.0,STARLINK-4530,PAYLOAD,2023-02-03 07:43:31,15.08835835,0.0001486,53.2149,158.5432,84.2654,275.8508,8.3133e-05,1.035e-05,0.0,0 STARLINK-4530,1 53393U 22097F   23034.32188687  .00001035  00000-0  83133-4 0  9999,2 53393  53.2149 158.5432 0001486  84.2654 275.8508 15.08835835 27375,6917.893,95.438,540.786,538.73,0.0
53393.0,STARLINK-4530,PAYLOAD,2023-02-03 09:18:54,15.08833863,0.0001389,53.2154,158.2458,85.8896,274.2255,6.2503e-05,7.07e-06,0.0,0 STARLINK-4530,1 53393U 22097F   23034.38812856  .00000707  00000-0  62503-4 0  9990,2 53393  53.2154 158.2458 0001389  85.8896 274.2255 15.08833863 28038,6917.899,95.438,540.725,538.803,0.0
53393.0,STARLINK-4530,PAYLOAD,2023-02-03 17:15:49,15.08840371,0.000144,53.2149,156.7582,87.6507,272.465,3.8587e-05,3.26e-06,0.0,0 STARLINK-4530,1 53393U 22097F   23034.71932568  .00000326  00000-0  38587-4 0  9992,2 53393  53.2149 156.7582 0001440  87.6507 272.4650 15.08840371 28086,6917.879,95.438,540.74,538.748,0.0
53393.0,STARLINK-4530,PAYLOAD,2023-02-04 13:55:50,15.08844078,0.000139,53.2143,152.8925,99.3793,260.7356,0.00013456,1.854e-05,0.0,0 STARLINK-4530,1 53393U 22097F   23035.58044119  .00001854  00000-0  13456-3 0  9998,2 53393  53.2143 152.8925 0001390  99.3793 260.7356 15.08844078 27562,6917.868,95.437,540.695,538.771,0.0
53393.0,STARLINK-4530,PAYLOAD,2023-02-04 17:06:36,15.08847903,0.0001457,53.2144,152.2981,98.0687,262.047,0.00017672,2.526e-05,0.0,0 STARLINK-4530,1 53393U 22097F   23035.71291810  .00002526  00000-0  17672-3 0  9996,2 53393  53.2144 152.2981 0001457  98.0687 262.0470 15.08847903 28238,6917.856,95.437,540.729,538.713,0.0
